GOMX-1                  
1 39430U 13066Q   24154.90319353  .00002298  00000+0  38864-3 0  9996
2 39430  97.7348  30.1502 0138814 298.6454  60.0848 14.64127339560774
CUBEBUG-2 (LO-74)       
1 39440U 13066AA  24154.80867532  .00004760  00000+0  56492-3 0  9996
2 39440  97.8122  98.7893 0068866 322.5194  37.1228 14.83254980566201
NEE-02 KRYSAOR          
1 39441U 13066AB  24154.36465034  .00003519  00000+0  45039-3 0  9995
2 39441  97.8216  94.2853 0073991 345.5926  14.3175 14.80056999565749
FUNCUBE-1 (AO-73)       
1 39444U 13066AE  24154.86119495  .00005106  00000+0  49915-3 0  9991
2 39444  97.7183 114.2422 0047935 186.3287 173.7332 14.91921585567975
UWE-3                   
1 39446U 13066AG  24154.63972903  .00003651  00000+0  41144-3 0  9998
2 39446  97.7800 104.6921 0058661 267.3413  92.1087 14.85986518566542
BRITE-CA1 (TORONTO)     
1 40020U 14033L   24154.38046017  .00001878  00000+0  30890-3 0  9998
2 40020  97.8755 292.0268 0084110 138.8133 221.9461 14.69389003532692
DUCHIFAT-1              
1 40021U 14033M   24154.42091684  .00011200  00000+0  75318-3 0  9998
2 40021  98.0898 137.5008 0014484 143.0542 217.1685 15.06850573541904
NANOSATC-BR1            
1 40024U 14033Q   24154.89646120  .00008734  00000+0  65252-3 0  9997
2 40024  98.0614 126.4114 0005324 197.4952 162.6089 15.03049978541109
QB50P1                  
1 40025U 14033R   24154.47111425  .00005704  00000+0  46887-3 0  9994
2 40025  98.0384 114.7543 0009963 205.3449 154.7286 14.99532787540674
QB50P2                  
1 40032U 14033Y   24154.69448359  .00006425  00000+0  54503-3 0  9990
2 40032  98.0076 106.7653 0008717 188.2582 171.8498 14.98266519540509
PERSEUS-M2              
1 40037U 14033AD  24154.39073430  .00001693  00000+0  17952-3 0  9995
2 40037  97.9268  85.1295 0011733 240.9124 119.0919 14.90406579539624
PERSEUS-M1              
1 40039U 14033AF  24154.61517849  .00002674  00000+0  28166-3 0  9998
2 40039  97.9073  81.4520 0011496 239.0957 120.9130 14.90179826539515
POLYITAN-1              
1 40042U 14033AJ  24154.43409271  .00008837  00000+0  67384-3 0  9993
2 40042  98.0707 118.1151 0013784 173.0326 187.1091 15.02209659540629
TIGRISAT                
1 40043U 14033AK  24154.38936313  .00002146  00000+0  29103-3 0  9994
2 40043  97.6939 317.7613 0055075 353.2358   6.8104 14.78858668535277
AEROCUBE 6A             
1 40045U 14033AM  24154.48912487  .00005013  00000+0  60520-3 0  9997
2 40045  97.6689 328.5535 0049673 331.0963  28.7502 14.83323301535617
AEROCUBE 6B             
1 40046U 14033AN  24154.46606595  .00004513  00000+0  53484-3 0  9991
2 40046  97.6656 327.2231 0048265 326.6450  33.1726 14.84189763535664
UKUBE-1                 
1 40074U 14037F   24154.73331570  .00006704  00000+0  64056-3 0  9995
2 40074  98.3425  83.7705 0005730 111.7837 248.3991 14.93616974536629
BRITE-PL2 (HEWELIUSZ)   
1 40119U 14049B   24154.23028145  .00002765  00000+0  30064-3 0  9999
2 40119  97.8817 253.9652 0016882  57.1545 303.1294 14.88803766530350
CP10 (EXOCUBE)          
1 40380U 15003E   24154.78164071  .00282945  30899-4  11229-2 0  9994
2 40380  99.0872 177.2259 0034949 160.0556 200.2084 15.85675352517159
AEROCUBE 5C             
1 40965U 15058B   24154.09064538  .00003803  00000+0  35846-3 0  9996
2 40965  64.7716  47.9994 0189385 312.7698  45.7608 14.82740476254801
AEROCUBE 7              
1 40966U 15058C   24154.86538942  .00004726  00000+0  42649-3 0  9991
2 40966  64.7697  39.5218 0184404 312.1549  46.4017 14.84610381254986
FOX-1A (AO-85)          
1 40967U 15058D   24154.75230317  .00003935  00000+0  37679-3 0  9993
2 40967  64.7792  59.7734 0189048 308.3690  50.0561 14.82136835  2850
BISONSAT                
1 40968U 15058E   24154.81086747  .00005050  00000+0  46148-3 0  9998
2 40968  64.7795  52.4989 0183935 307.3400  51.1071 14.84109491  5685
SNAP-3 ALICE            
1 40970U 15058G   24154.59576035  .00009772  00000+0  69213-3 0  9993
2 40970  64.7727  11.3007 0154938 305.2384  53.4311 14.96040692  3609
LMRST-SAT               
1 40971U 15058H   24154.72658353  .00003587  00000+0  34430-3 0  9994
2 40971  64.7782  55.3800 0190092 309.7826  48.6672 14.82085390  2852
SNAP-3 EDDIE            
1 40972U 15058J   24153.94101943  .00010460  00000+0  73171-3 0  9999
2 40972  64.7708   6.7934 0155499 306.3955  52.2898 14.96368454  5604
PROPCUBE 3              
1 40973U 15058K   24154.29787726  .00004263  00000+0  39147-3 0  9997
2 40973  64.7730  44.6539 0186445 311.2294  47.2871 14.83875109  3821
SINOD-D 1               
1 40974U 15058L   24154.08467940  .00006998  00000+0  54990-3 0  9998
2 40974  64.7700  20.2043 0168272 308.9000  49.7205 14.91095644  3516
SNAP-3 JIMI             
1 40975U 15058M   24154.75301718  .00005137  00000+0  44125-3 0  9996
2 40975  64.7715  31.5417 0178753 310.0412  48.5130 14.86988001  2884
PROPCUBE 1 (FLORA)      
1 40976U 15058N   24154.37231770  .00003964  00000+0  39299-3 0  9997
2 40976  64.7768  71.8097 0188013 311.1167  47.3836 14.80941827  5605
SINOD-D 3               
1 40977U 15058P   24154.58385730  .00005081  00000+0  48126-3 0  9998
2 40977  64.7767  64.6118 0182841 310.2303  48.2929 14.82899616  3863
VELOX-II                
1 41171U 15077F   24154.38690402  .00170944  00000+0  13815-2 0  9996
2 41171  14.9859 171.3419 0004389 206.7469 153.2634 15.68851477469450
HORYU-4                 
1 41340U 16012D   24154.91972709  .00011990  00000+0  60084-3 0  9992
2 41340  31.0025  68.5696 0009617 192.7377 167.3021 15.16079615455986
RAVAN                   
1 41849U 16067B   24154.43878968  .00009687  00000+0  53867-3 0  9996
2 41849  98.0638 331.2666 0014092  81.3247 278.9578 15.13825422413759
CELTEE 1                
1 41850U 16067C   24154.68677728  .00006472  00000+0  44378-3 0  9992
2 41850  98.1011 323.4414 0000659 171.6572 188.4664 15.06400961413243
OPTICUBE 04             
1 41851U 16067D   24154.90337833  .00003143  00000+0  23977-3 0  9992
2 41851  98.0750 319.2499 0020083 102.7153 257.6317 15.02653659413099
AEROCUBE 8D             
1 41852U 16067E   24154.42234859  .00007352  00000+0  48755-3 0  9991
2 41852  98.1059 322.8768 0005710 150.6371 209.5177 15.07579335413178
AEROCUBE 8C             
1 41853U 16067F   24154.76734215  .00006341  00000+0  42143-3 0  9992
2 41853  98.0867 321.8558 0008952  90.5802 269.6450 15.07539735413219
PROMETHEUS 2-1          
1 41854U 16067G   24154.91181173  .00016509  00000+0  84804-3 0  9996
2 41854  98.0988 329.1251 0013506 107.4770 252.7939 15.16503503413576
PROMETHEUS 2-3          
1 41855U 16067H   24154.44591590  .00015038  00000+0  77430-3 0  9996
2 41855  98.0919 328.1311 0011667 118.4804 241.7603 15.16463381413501
DIDO-2                  
1 42000U 17008BE  24154.93996152  .00193434  00000+0  84193-3 0  9993
2 42000  97.1308 216.1993 0006494 188.6235 171.4925 15.84248840406545
AALTO-1                 
1 42775U 17036L   24154.08177850  .00089970  00000+0  89905-3 0  9990
2 42775  97.1048 183.5490 0004628 213.3316 146.7654 15.65309253386745
URSA MAIOR              
1 42776U 17036M   24154.87548462  .00288353  00000+0  11419-2 0  9999
2 42776  97.0963 188.5609 0007074 198.9845 161.1164 15.85999708387134
CICERO 6                
1 42793U 17036AE  24154.80819528  .00723587  25985-3  11022-2 0  9991
2 42793  97.0479 193.1754 0007176 202.9450 157.1512 16.04468742387547
CORVUS BC2              
1 42846U 17042X   24154.82465508  .00003253  00000+0  28268-3 0  9993
2 42846  97.3745 340.7306 0009601 104.3167 255.9123 14.97608629375297
CORVUS BC1              
1 42847U 17042Y   24154.51997724  .00003850  00000+0  33249-3 0  9998
2 42847  97.3726 340.8424 0009448 106.9069 253.3191 14.97748253375269
MIRATA                  
1 43015U 17073C   24154.93572098  .00019095  00000+0  91237-3 0  9998
2 43015  97.5986  39.8464 0169180 310.1015  48.5486 15.07238997354186
MAKERSAT 0              
1 43016U 17073D   24154.19677092  .00013496  00000+0  77256-3 0  9991
2 43016  97.5828  33.5939 0195494 333.2524  25.8717 14.97949280353678
CORVUS BC3              
1 43118U 18004H   24154.91980422  .00587822  15311-3  12219-2 0  9994
2 43118  97.2780 241.4202 0010466 262.6556  97.3533 15.99021913356673
GOMX-4B                 
1 43196U 18015E   24154.76095053  .00060616  00000+0  69218-3 0  9996
2 43196  97.6060 327.2879 0006547   5.5146 354.6182 15.61987268353276
GOMX-4A                 
1 43197U 18015F   24154.92242915  .00099614  00000+0  72528-3 0  9994
2 43197  97.5962 332.3356 0004360 338.4908  21.6171 15.73008742353632
CICERO 10               
1 43690U 18088A   24154.88440680  .00198274  00000+0  11764-2 0  9992
2 43690  85.0107 189.6498 0000962 196.9592 163.1648 15.77481025309953
SIRION PATHFINDER-2     
1 43759U 18099B   24154.11121956  .00005789  00000+0  43865-3 0  9994
2 43759  97.5278 210.6766 0010967 340.6370  19.4437 15.02598801300248
CORVUS BC4              
1 43767U 18099K   24154.13763375  .00004577  00000+0  35374-3 0  9992
2 43767  97.5164 207.9709 0011719  54.2940 305.9373 15.01942245300138
MOVE-II                 
1 43780U 18099Y   24154.63202336  .00016706  00000+0  89092-3 0  9990
2 43780  97.5229 217.7597 0006664  43.0569 317.1184 15.15220515300729
SPACEBEE-7              
1 43816U 18099BL  24154.63934925  .00011775  00000+0  70325-3 0  9996
2 43816  97.5499 218.5180 0008790 345.3492  14.7482 15.11225994300217
SPACEBEE-6              
1 43818U 18099BN  24154.16995236  .00026861  00000+0  11608-2 0  9998
2 43818  97.5414 223.1511 0006867 344.1712  15.9308 15.22430697300626
SHIELDS 1               
1 43850U 18104B   24154.80568441  .00014366  00000+0  39021-3 0  9993
2 43850  85.0215 292.8687 0012479 122.1677 238.0786 15.37362069303950
